GPS BIIR-2  (PRN 13)    
1 24876C 97035A   22171.70645833 -.00000000  00000-0  00000-0 0  1713
2 24876  55.5115 155.5465 0058337  51.0527 204.1274  2.00563314    13
GPS BIIR-4  (PRN 20)    
1 26360C 00025A   22171.70645833 -.00000000  00000-0  00000-0 0  1716
2 26360  54.0615  78.7317 0047702 184.0177 159.7622  2.00571966    10
GPS BIIR-6  (PRN 22)    
1 26605C 00071A   22171.70645833 -.00000000  00000-0  00000-0 0  1719
2 26605  55.0953 152.5378 0136470 254.3615 218.7538  2.00559747    10
GPS BIIR-8  (PRN 16)    
1 27663C 03005A   22171.70645833  .00000000  00000-0  00000-0 0  1713
2 27663  55.5097 272.9326 0125575  41.1034 282.6971  2.00564344    10
GPS BIIR-9  (PRN 21)    
1 27704C 03010A   22171.70645833 -.00000000  00000-0  00000-0 0  1716
2 27704  55.0258  23.1738 0244498 306.2085 234.2267  2.00556263    12
GPS BIIR-11 (PRN 19)    
1 28190C 04009A   22171.70645833  .00000000  00000-0  00000-0 0  1714
2 28190  56.0029 333.9132 0090643 120.7731 358.7302  2.00560364    16
GPS BIIR-13 (PRN 02)    
1 28474C 04045A   22171.70645833 -.00000000  00000-0  00000-0 0  1710
2 28474  55.3526  23.3123 0206096 279.0621 110.2355  2.00562835    16
GPS BIIRM-1 (PRN 17)    
1 28874C 05038A   22171.70645833  .00000000  00000-0  00000-0 0  1716
2 28874  56.0690 331.3480 0137382 274.4534 227.2959  2.00576239    13
GPS BIIRM-2 (PRN 31)    
1 29486C 06042A   22171.70645833  .00000000  00000-0  00000-0 0  1712
2 29486  54.7140 209.1446 0103379  21.4916  36.5752  2.00553724    11
GPS BIIRM-3 (PRN 12)    
1 29601C 06052A   22171.70645833  .00000000  00000-0  00000-0 0  1712
2 29601  55.5168 271.8705 0083816  74.4538  27.5657  2.00551195    18
GPS BIIRM-4 (PRN 15)    
1 32260C 07047A   22171.70645833 -.00000000  00000-0  00000-0 0  1713
2 32260  53.3159 140.4091 0139479  62.3792 171.8232  2.00574741    17
GPS BIIRM-5 (PRN 29)    
1 32384C 07062A   22171.70645833  .00000000  00000-0  00000-0 0  1716
2 32384  56.1878 332.1094 0020621 137.0036 227.0916  2.00562304    10
GPS BIIRM-6 (PRN 07)    
1 32711C 08012A   22171.70645833  .00000000  00000-0  00000-0 0  1716
2 32711  54.4739 208.0792 0164181 231.0574  62.7734  2.00565539    14
GPS BIIRM-8 (PRN 05)    
1 35752C 09043A   22171.70645833 -.00000000  00000-0  00000-0 0  1710
2 35752  55.0742  85.3967 0058555  58.7213 252.8504  2.00555591    18
GPS BIIF-1  (PRN 25)    
1 36585C 10022A   22171.70645833  .00000000  00000-0  00000-0 0  1713
2 36585  54.8000 267.3875 0102878  56.9576  11.7789  2.00565438    15
GPS BIIF-2  (PRN 01)    
1 37753C 11036A   22171.70645833 -.00000000  00000-0  00000-0 0  1718
2 37753  56.6074  28.5764 0118091  52.1546 101.4813  2.00565545    11
GPS BIIF-3  (PRN 24)    
1 38833C 12053A   22171.70645833  .00000000  00000-0  00000-0 0  1717
2 38833  53.5292 203.2171 0123737  46.1548 119.8988  2.00562200    12
GPS BIIF-4  (PRN 27)    
1 39166C 13023A   22171.70645833  .00000000  00000-0  00000-0 0  1715
2 39166  55.6959 327.7193 0104006  38.3985 229.4717  2.00565771    11
GPS BIIF-5  (PRN 30)    
1 39533C 14008A   22171.70645833  .00000000  00000-0  00000-0 0  1717
2 39533  53.6228 208.7240 0060216 208.8087  58.5812  2.00554043    15
GPS BIIF-6  (PRN 06)    
1 39741C 14026A   22171.70645833 -.00000000  00000-0  00000-0 0  1719
2 39741  56.5692  28.1022 0026631 307.8817 116.9861  2.00555823    19
GPS BIIF-7  (PRN 09)    
1 40105C 14045A   22171.70645833 -.00000000  00000-0  00000-0 0  1716
2 40105  54.6936 146.6739 0019044 109.2425 256.7048  2.00578423    16
GPS BIIF-8  (PRN 03)    
1 40294C 14068A   22171.70645833 -.00000000  00000-0  00000-0 0  1710
2 40294  55.8186  87.8067 0041043  54.4252  39.1518  2.00571618    12
GPS BIIF-9  (PRN 26)    
1 40534C 15013A   22171.70645833  .00000000  00000-0  00000-0 0  1717
2 40534  53.7010 264.5614 0068687  20.5097 333.4275  2.00552331    19
GPS BIIF-10 (PRN 08)    
1 40730C 15033A   22171.70645833  .00000000  00000-0  00000-0 0  1717
2 40730  55.1943 326.5471 0074168   8.2015 226.6284  2.00551497    17
GPS BIIF-11 (PRN 10)    
1 41019C 15062A   22171.70645833 -.00000000  00000-0  00000-0 0  1711
2 41019  55.8069  87.6495 0077947 218.1872 344.0873  2.00562690    12
GPS BIIF-12 (PRN 32)    
1 41328C 16007A   22171.70645833 -.00000000  00000-0  00000-0 0  1714
2 41328  54.9110 147.3467 0062082 230.6930 265.7084  2.00570698    13
GPS BIII-1  (PRN 04)    
1 43873C 18109A   22171.70645833 -.00000000  00000-0  00000-0 0  1716
2 43873  55.0906 149.7661 0019139 196.5198 195.8942  2.00571886    14
GPS BIII-2  (PRN 18)    
1 44506C 19056A   22171.70645833 -.00000000  00000-0  00000-0 0  1712
2 44506  55.6803  28.9182 0024194 177.5030 116.6160  2.00557309    14
GPS BIII-3  (PRN 23)    
1 45854C 20041A   22171.70645833 -.00000000  00000-0  00000-0 0  1715
2 45854  55.5253  86.1890 0022444 177.4807  52.7978  2.00558970    10
GPS BIII-4  (PRN 14)    
1 46826C 20078A   22171.70645833  .00000000  00000-0  00000-0 0  1714
2 46826  54.5647 269.9644 0020382 187.0971  18.2434  2.00565087    13
GPS BIII-5  (PRN 11)    
1 48859C 21054A   22171.70645833 -.00000000  00000-0  00000-0 0  1718
2 48859  55.1862  30.9168 0004574 189.4975 199.4507  2.00573492    11
